{
    "links": {
        "self": "http://www.neowsapp.com/rest/v1/neo/3102670?api_key=iIulBulltgU6a56xZRHN4H3l9WmuAYTsLGpBGhQ2"
    },
    "id": "3102670",
    "neo_reference_id": "3102670",
    "name": "(2001 WH49)",
    "designation": "2001 WH49",
    "nasa_jpl_url": "http://ssd.jpl.nasa.gov/sbdb.cgi?sstr=3102670",
    "absolute_magnitude_h": 26.0,
    "estimated_diameter": {
        "kilometers": {
            "estimated_diameter_min": 0.0167708462,
            "estimated_diameter_max": 0.0375007522
        },
        "meters": {
            "estimated_diameter_min": 16.7708462163,
            "estimated_diameter_max": 37.5007521798
        },
        "miles": {
            "estimated_diameter_min": 0.0104209175,
            "estimated_diameter_max": 0.0233018799
        },
        "feet": {
            "estimated_diameter_min": 55.0224631002,
            "estimated_diameter_max": 123.0339677816
        }
    },
    "is_potentially_hazardous_asteroid": false,
    "close_approach_data": [
        {
            "close_approach_date": "2001-11-03",
            "close_approach_date_full": "2001-Nov-03 10:54",
            "epoch_date_close_approach": 1004784840000,
            "relative_velocity": {
                "kilometers_per_second": "5.6487066419",
                "kilometers_per_hour": "20335.3439107484",
                "miles_per_hour": "12635.5918872092"
            },
            "miss_distance": {
                "astronomical": "0.032333354",
                "lunar": "12.577674706",
                "kilometers": "4837000.88835598",
                "miles": "3005572.981753324"
            },
            "orbiting_body": "Earth"
        }
    ],
    "orbital_data": {
        "orbit_id": "7",
        "orbit_determination_date": "2017-04-06 09:15:47",
        "first_observation_date": "2001-11-24",
        "last_observation_date": "2001-11-25",
        "data_arc_in_days": 1,
        "observations_used": 6,
        "orbit_uncertainty": "9",
        "minimum_orbit_intersection": ".0322729",
        "jupiter_tisserand_invariant": "4.549",
        "epoch_osculation": "2452238.5",
        "eccentricity": ".3205286594159952",
        "semi_major_axis": "1.467273247857337",
        "inclination": "4.773494909080204",
        "ascending_node_longitude": "238.4126353944517",
        "orbital_period": "649.1796924726106",
        "perihelion_distance": ".9969701207246717",
        "perihelion_argument": "142.1164969444749",
        "aphelion_distance": "1.937576374990003",
        "perihelion_time": "2452198.815774942701",
        "mean_anomaly": "22.00672816214194",
        "mean_motion": ".5545459973167425",
        "equinox": "J2000",
        "orbit_class": {
            "orbit_class_type": "APO",
            "orbit_class_description": "Near-Earth asteroid orbits which cross the Earth’s orbit similar to that of 1862 Apollo",
            "orbit_class_range": "a (semi-major axis) > 1.0 AU; q (perihelion) < 1.017 AU"
        }
    },
    "is_sentry_object": false
}